[{"OBJECT_NAME":"STARLINK-4764","OBJECT_ID":"2022-114K","EPOCH":"2026-03-09T21:49:20.035488","MEAN_MOTION":15.08862308,"ECCENTRICITY":0.00014152,"INCLINATION":53.2176,"RA_OF_ASC_NODE":303.2006,"ARG_OF_PERICENTER":69.746,"MEAN_ANOMALY":290.3684,"EPHEMERIS_TYPE":0,"CLASSIFICATION_TYPE":"U","NORAD_CAT_ID":53827,"ELEMENT_SET_NO":999,"REV_AT_EPOCH":19286,"BSTAR":0.00032708649,"MEAN_MOTION_DOT":4.925e-5,"MEAN_MOTION_DDOT":0},{"OBJECT_NAME":"JILIN-01 KUANFU 02B 4","OBJECT_ID":"2024-169D","EPOCH":"2026-03-09T23:04:43.463424","MEAN_MOTION":15.0922271,"ECCENTRICITY":0.00080501,"INCLINATION":97.5522,"RA_OF_ASC_NODE":159.355,"ARG_OF_PERICENTER":260.1533,"MEAN_ANOMALY":99.8787,"EPHEMERIS_TYPE":0,"CLASSIFICATION_TYPE":"U","NORAD_CAT_ID":61192,"ELEMENT_SET_NO":999,"REV_AT_EPOCH":8086,"BSTAR":0.00035789888,"MEAN_MOTION_DOT":5.634e-5,"MEAN_MOTION_DDOT":0}]
